OBJECT_NAME,OBJECT_ID,EPOCH,MEAN_MOTION,ECCENTRICITY,INCLINATION,RA_OF_ASC_NODE,ARG_OF_PERICENTER,MEAN_ANOMALY,EPHEMERIS_TYPE,CLASSIFICATION_TYPE,NORAD_CAT_ID,ELEMENT_SET_NO,REV_AT_EPOCH,BSTAR,MEAN_MOTION_DOT,MEAN_MOTION_DDOT
HYLAS 2,2012-043B,2026-06-05T06:19:36.206400,1.00272899,.00028258,2.3960,81.2117,14.5205,180.3018,0,U,38741,999,5065,0,-.245E-5,0
INTELSAT 21 (IS-21),2012-045A,2026-06-05T06:23:50.798688,1.00273605,.00021269,0.0398,82.5603,357.7072,211.4023,0,U,38749,999,5040,0,-.273E-5,0
ASTRA 2F,2012-051A,2026-06-05T06:48:25.943040,1.00272264,.00008392,0.0516,257.6167,266.2537,220.1346,0,U,38778,999,4101,0,.162E-5,0
GSAT-10,2012-051B,2026-06-05T03:38:40.002432,1.00272286,.00080703,0.0217,261.4881,186.6616,303.1346,0,U,38779,999,4997,0,-.153E-5,0
INTELSAT 23 (IS-23),2012-057A,2026-06-05T05:55:08.787936,1.00268001,.00002759,0.0116,307.9774,189.6525,151.8250,0,U,38867,999,4983,0,-.272E-5,0
LUCH-5B,2012-061A,2026-06-05T01:28:33.080736,1.00274355,.00016578,10.4553,49.9998,139.2463,70.0738,0,U,38977,999,4948,0,-.128E-5,0
STAR ONE C3,2012-062A,2026-06-05T06:18:58.765824,1.00270841,.00026537,0.0044,24.6878,66.3139,182.4562,0,U,38991,999,4964,0,-.237E-5,0
EUTELSAT 21B,2012-062B,2026-06-04T17:40:45.388416,1.00269313,.00030482,0.0666,345.4341,82.7446,111.7781,0,U,38992,999,4970,0,.142E-5,0
ECHOSTAR 16,2012-065A,2026-06-04T16:39:32.642784,1.00274798,.0002093,0.0149,353.7381,95.7243,352.0763,0,U,39008,999,4951,0,0,0
ZHONGXING-12,2012-067A,2026-06-05T04:17:21.789888,1.00271975,.00033681,0.0477,97.3258,333.6896,334.4514,0,U,39017,999,4938,0,-.195E-5,0
EUTELSAT 70B,2012-069A,2026-06-05T03:35:10.337280,1.00271380,.00039574,0.0617,348.6935,78.5797,310.5930,0,U,39020,999,4938,0,-.31E-6,0
YAMAL 402,2012-070A,2026-06-05T05:13:20.963136,1.00272817,.00040263,1.2340,84.3105,347.6632,314.9181,0,U,39022,999,4927,0,.98E-6,0
SKYNET 5D,2012-075A,2026-06-05T05:12:43.523424,1.00272050,.00039525,0.0660,355.4411,86.6420,302.5257,0,U,39034,999,4903,0,.111E-5,0
MEXSAT 3,2012-075B,2026-06-05T06:07:41.254176,1.00276485,.00010372,0.0126,42.5867,29.1098,159.1381,0,U,39035,999,693,0,-.14E-6,0
TDRS 11,2013-004A,2026-06-05T00:42:40.134816,1.00278493,.00049917,3.5036,31.0624,20.9854,37.8699,0,U,39070,999,4657,0,.92E-6,0
AMAZONAS 3,2013-006A,2026-06-05T06:22:58.383264,1.00271522,.0002226,0.0373,175.9577,288.7862,183.7162,0,U,39078,999,4479,0,-.27E-5,0
AZERSPACE 1,2013-006B,2026-06-05T05:10:51.201696,1.00271517,.00014804,0.0266,63.1860,35.5087,278.6588,0,U,39079,999,4868,0,.145E-5,0
SBIRS GEO-2 (USA 241),2013-011A,2026-06-05T04:43:25.382784,1.00271445,.0002106,4.4648,52.5025,13.0141,209.1646,0,U,39120,999,4841,0,-.275E-5,0
EUTELSAT 117 WEST A,2013-012A,2026-06-05T06:07:03.813600,1.00271957,.0002951,0.0372,55.8398,21.5449,151.2674,0,U,39122,999,4831,0,-.1E-7,0
ANIK G1,2013-014A,2026-06-05T05:43:21.490752,1.00272177,.00018686,0.0398,82.7268,344.7136,164.7681,0,U,39127,999,4813,0,-.62E-6,0
ZHONGXING-11,2013-020A,2026-06-05T04:27:21.852576,1.00269958,.00025282,0.0239,22.3913,52.3434,343.6198,0,U,39157,999,4777,0,-.278E-5,0
EUTELSAT 7B,2013-022A,2026-06-05T04:59:44.767392,1.00270788,.00052431,0.0669,4.3295,31.3032,299.9516,0,U,39163,999,4782,0,.6E-6,0
WGS F5 (USA 243),2013-024A,2026-06-04T16:44:10.181184,1.00269105,.00004355,0.0187,313.3297,91.0926,47.2585,0,U,39168,999,4705,0,-.272E-5,0
SES-6,2013-026A,2026-06-04T21:55:33.153888,1.00270772,.00028588,0.0176,359.7439,82.3503,99.6551,0,U,39172,999,4760,0,-.249E-5,0
IRNSS-1A,2013-034A,2026-05-22T20:37:38.469792,1.00280263,.00166187,35.6649,64.2334,185.3754,355.4646,0,U,39199,999,4711,0,.59E-6,0
MUOS-2,2013-036A,2026-06-04T21:13:29.687232,1.00271077,.0050566,4.9717,45.5165,178.1538,159.9685,0,U,39206,999,4706,0,-.2E-7,0
ALPHASAT,2013-038A,2026-06-05T05:04:44.287680,1.00270224,.00020702,2.9978,1.4327,71.7471,281.5188,0,U,39215,999,4389,0,.145E-5,0
INSAT-3D,2013-038B,2026-06-05T05:34:28.839936,1.00268853,.00008757,1.8948,82.6914,348.6187,35.4773,0,U,39216,999,4696,0,-.327E-5,0
WGS F6 (USA 244),2013-041A,2026-06-05T04:19:13.612224,1.00271663,.0000266,0.0181,349.6136,75.7300,117.9155,0,U,39222,999,4594,0,.101E-5,0
ES'HAIL 1,2013-044A,2026-06-05T05:04:59.264256,1.00269851,.00025329,0.0479,354.2472,75.1007,286.0336,0,U,39233,999,4650,0,.155E-5,0
