HYLAS 2                 
1 38741U 12043B   26156.26361350 -.00000245  00000+0  00000+0 0  9999
2 38741   2.3960  81.2117 0002825  14.5205 180.3018  1.00272899 50654
INTELSAT 21 (IS-21)     
1 38749U 12045A   26156.26656017 -.00000273  00000+0  00000+0 0  9997
2 38749   0.0398  82.5603 0002126 357.7072 211.4023  1.00273605 50405
ASTRA 2F                
1 38778U 12051A   26156.28363360  .00000162  00000+0  00000+0 0  9990
2 38778   0.0516 257.6167 0000839 266.2537 220.1346  1.00272264 41010
GSAT-10                 
1 38779U 12051B   26156.15185188 -.00000153  00000+0  00000+0 0  9998
2 38779   0.0217 261.4881 0008070 186.6616 303.1346  1.00272286 49972
INTELSAT 23 (IS-23)     
1 38867U 12057A   26156.24662949 -.00000272  00000+0  00000+0 0  9999
2 38867   0.0116 307.9774 0000275 189.6525 151.8250  1.00268001 49833
LUCH-5B                 
1 38977U 12061A   26156.06149399 -.00000128  00000+0  00000+0 0  9995
2 38977  10.4553  49.9998 0001657 139.2463  70.0738  1.00274355 49486
STAR ONE C3             
1 38991U 12062A   26156.26318016 -.00000237  00000+0  00000+0 0  9999
2 38991   0.0044  24.6878 0002653  66.3139 182.4562  1.00270841 49643
EUTELSAT 21B            
1 38992U 12062B   26155.73663644  .00000142  00000+0  00000+0 0  9995
2 38992   0.0666 345.4341 0003048  82.7446 111.7781  1.00269313 49702
ECHOSTAR 16             
1 39008U 12065A   26155.69412781  .00000000  00000+0  00000+0 0  9999
2 39008   0.0149 353.7381 0002093  95.7243 352.0763  1.00274798 49513
ZHONGXING-12            
1 39017U 12067A   26156.17872442 -.00000195  00000+0  00000+0 0  9995
2 39017   0.0477  97.3258 0003368 333.6896 334.4514  1.00271975 49382
EUTELSAT 70B            
1 39020U 12069A   26156.14942520 -.00000031  00000+0  00000+0 0  9992
2 39020   0.0617 348.6935 0003957  78.5797 310.5930  1.00271380 49382
YAMAL 402               
1 39022U 12070A   26156.21760374  .00000098  00000+0  00000+0 0  9991
2 39022   1.2340  84.3105 0004026 347.6632 314.9181  1.00272817 49279
SKYNET 5D               
1 39034U 12075A   26156.21717041  .00000111  00000+0  00000+0 0  9998
2 39034   0.0660 355.4411 0003952  86.6420 302.5257  1.00272050 49038
MEXSAT 3                
1 39035U 12075B   26156.25533859 -.00000014  00000+0  00000+0 0  9999
2 39035   0.0126  42.5867 0001037  29.1098 159.1381  1.00276485  6932
TDRS 11                 
1 39070U 13004A   26156.02963119  .00000092  00000+0  00000+0 0  9997
2 39070   3.5036  31.0624 0004991  20.9854  37.8699  1.00278493 46573
AMAZONAS 3              
1 39078U 13006A   26156.26595351 -.00000270  00000+0  00000+0 0  9991
2 39078   0.0373 175.9577 0002226 288.7862 183.7162  1.00271522 44798
AZERSPACE 1             
1 39079U 13006B   26156.21587039  .00000145  00000+0  00000+0 0  9991
2 39079   0.0266  63.1860 0001480  35.5087 278.6588  1.00271517 48683
SBIRS GEO-2 (USA 241)   
1 39120U 13011A   26156.19682156 -.00000275  00000+0  00000+0 0  9992
2 39120   4.4648  52.5025 0002106  13.0141 209.1646  1.00271445 48410
EUTELSAT 117 WEST A     
1 39122U 13012A   26156.25490525 -.00000001  00000+0  00000+0 0  9996
2 39122   0.0372  55.8398 0002951  21.5449 151.2674  1.00271957 48315
ANIK G1                 
1 39127U 13014A   26156.23844318 -.00000062  00000+0  00000+0 0  9991
2 39127   0.0398  82.7268 0001868 344.7136 164.7681  1.00272177 48134
ZHONGXING-11            
1 39157U 13020A   26156.18566959 -.00000278  00000+0  00000+0 0  9996
2 39157   0.0239  22.3913 0002528  52.3434 343.6198  1.00269958 47778
EUTELSAT 7B             
1 39163U 13022A   26156.20815703  .00000060  00000+0  00000+0 0  9990
2 39163   0.0669   4.3295 0005243  31.3032 299.9516  1.00270788 47829
WGS F5 (USA 243)        
1 39168U 13024A   26155.69734006 -.00000272  00000+0  00000+0 0  9991
2 39168   0.0187 313.3297 0000435  91.0926  47.2585  1.00269105 47053
SES-6                   
1 39172U 13026A   26155.91357817 -.00000249  00000+0  00000+0 0  9998
2 39172   0.0176 359.7439 0002858  82.3503  99.6551  1.00270772 47600
IRNSS-1A                
1 39199U 13034A   26142.85947303  .00000059  00000+0  00000+0 0  9998
2 39199  35.6649  64.2334 0016618 185.3754 355.4646  1.00280263 47111
MUOS-2                  
1 39206U 13036A   26155.88437138 -.00000002  00000+0  00000+0 0  9995
2 39206   4.9717  45.5165 0050566 178.1538 159.9685  1.00271077 47066
ALPHASAT                
1 39215U 13038A   26156.21162370  .00000145  00000+0  00000+0 0  9995
2 39215   2.9978   1.4327 0002070  71.7471 281.5188  1.00270224 43895
INSAT-3D                
1 39216U 13038B   26156.23227824 -.00000327  00000+0  00000+0 0  9997
2 39216   1.8948  82.6914 0000875 348.6187  35.4773  1.00268853 46967
WGS F6 (USA 244)        
1 39222U 13041A   26156.18001866  .00000101  00000+0  00000+0 0  9997
2 39222   0.0181 349.6136 0000266  75.7300 117.9155  1.00271663 45945
ES'HAIL 1               
1 39233U 13044A   26156.21179704  .00000155  00000+0  00000+0 0  9992
2 39233   0.0479 354.2472 0002532  75.1007 286.0336  1.00269851 46506
